EUTELSAT HOTBIRD 13F    
1 54048U 22134A   26195.06258682  .00000081  00000+0  00000+0 0  9990
2 54048   0.0577 284.3960 0001838  71.1640 331.9173  1.00271968 13648
LDPE-2                  
1 54219U 22144A   26195.43586267  .00000021  00000+0  00000+0 0  9999
2 54219   5.6767  63.4227 0002362 109.9482 144.5401  1.00543530 12119
EUTELSAT HOTBIRD 13G    
1 54225U 22146A   26194.84878138  .00000000  00000+0  00000+0 0  9990
2 54225   0.0146 236.0241 0002418 309.3765  64.8996  1.00268715  7736
ZHONGXING-19            
1 54230U 22148A   26195.59134002  .00000000  00000+0  00000+0 0  9996
2 54230   0.0188  50.1320 0003017  89.4742 168.9212  1.00269298 13650
GALAXY 31 (G-31)        
1 54243U 22153A   26195.53510030  .00000006  00000+0  00000+0 0  9995
2 54243   0.0159  69.1234 0000963  50.6170 244.2713  1.00270964  7400
GALAXY 32 (G-32)        
1 54244U 22153B   26195.54099367 -.00000182  00000+0  00000+0 0  9998
2 54244   0.0107  43.5038 0001418   4.4759 348.1671  1.00269851 13416
EUTELSAT 10B            
1 54259U 22157A   26195.56101377  .00000060  00000+0  00000+0 0  9999
2 54259   0.0589  95.5481 0001479  14.5739  34.2479  1.00268546 13309
GALAXY 35 (G-35)        
1 54741U 22170A   26195.54056034 -.00000170  00000+0  00000+0 0  9990
2 54741   0.0202  80.2306 0001930  36.6850 276.9639  1.00270062 13168
GALAXY 36 (G-36)        
1 54742U 22170B   26195.54142700 -.00000193  00000+0  00000+0 0  9992
2 54742   0.0041 124.2203 0002388 335.9041 298.1858  1.00270300 13041
METEOSAT-12 (MTG-I1)    
1 54743U 22170C   26195.34513789 -.00000016  00000+0  00000+0 0  9994
2 54743   0.7242  19.5742 0003775  82.1984 314.3752  1.00267469 13253
SHIJIAN-23 (SJ-23)      
1 55131U 23002A   26194.77423154 -.00000357  00000+0  00000+0 0  9991
2 55131   3.7833  77.9768 0003432 270.3095 352.1879  1.00077393 12775
APSTAR-6E               
1 55239U 23005A   26194.80139883 -.00000323  00000+0  00000+0 0  9993
2 55239   0.0668 239.2682 0001716 340.0712 134.8519  1.00265658 18957
USA 342                 
1 55263U 23008A   26190.28864118  .00000000  00000+0  00000+0 0  9998
2 55263   0.0052 352.2306 0000262   7.3445  55.4773  1.00269378 12734
LDPE-3A                 
1 55264U 23008B   26195.58680845 -.00000304  00000+0  00000+0 0  9998
2 55264   2.4171  81.3243 0001508  78.4940 124.1220  0.99150305 12081
ELEKTRO-L 4             
1 55506U 23016A   26194.72941775 -.00000063  00000+0  00000+0 0  9995
2 55506   0.1239 277.8920 0001498 254.5348 187.5611  1.00270474 12609
AMAZONAS NEXUS          
1 55508U 23017A   26194.76278008 -.00000287  00000+0  00000+0 0  9992
2 55508   0.0356  42.7695 0004364  42.6416  59.8176  1.00268939  7317
ZHONGXING-26            
1 55686U 23023A   26195.01346951 -.00000360  00000+0  00000+0 0  9990
2 55686   0.0634  70.6483 0003172  27.0927 324.0938  1.00267642 12496
LUCH-5X (OLYMP-K 2)     
1 55841U 23031A   26194.71585002  .00000029  00000+0  00000+0 0  9991
2 55841   0.0297  94.8289 0000896 172.1151 344.3269  1.00271441 12200
GAOFEN-13 02            
1 55912U 23036A   26195.58839334 -.00000226  00000+0  00000+0 0  9991
2 55912   1.0273   4.5010 0003714 336.2513 311.7428  1.00274381 12369
SES-18                  
1 55970U 23038A   26195.53865366 -.00000109  00000+0  00000+0 0  9996
2 55970   0.0546 256.8579 0000840 312.2596 174.1066  1.00271593 12371
SES-19                  
1 55971U 23038B   26195.53232696  .00000080  00000+0  00000+0 0  9998
2 55971   0.0113 344.3455 0001483 129.3634 235.4140  1.00268994 12366
INTELSAT 40E (IS-40E)   
1 56174U 23052A   26195.54099367  .00000000  00000+0  00000+0 0  9999
2 56174   0.0267  72.7179 0002292  73.0834 250.3725  1.00269041 12092
VIASAT-3 F1             
1 56370U 23060A   26195.54142700  .00000000  00000+0  00000+0 0  9996
2 56370   0.0149  24.5359 0000925  80.1805 293.6272  1.00271312 11700
ARCTURUS                
1 56371U 23060B   26195.63651611 -.00000343  00000+0  00000+0 0  9994
2 56371   2.8428  79.6002 0000951 131.8432  48.5684  1.00594933 11730
GS-1                    
1 56372U 23060C   26194.93514823 -.00000230  00000+0  00000+0 0  9995
2 56372   2.7922  79.5163 0003403 281.1231 357.1420  1.00267117  7808
BEIDOU-3 G4             
1 56564U 23066A   26195.65809909 -.00000288  00000+0  00000+0 0  9999
2 56564   0.4610 338.7424 0004889 187.4454 143.3051  1.00272619 11661
ARABSAT-7B (BADR-8)     
1 56757U 23075A   26195.49293264  .00000137  00000+0  00000+0 0  9998
2 56757   0.0743  30.7036 0003416 358.3138 106.7877  1.00271079 11397
NVS-01 (IRNSS-1J)       
1 56759U 23076A   26195.51572480 -.00000344  00000+0  00000+0 0  9995
2 56759   2.1032 243.1118 0003555   7.1226 357.2389  1.00264974 11392
NUSANTARA TIGA (SATRIA) 
1 57045U 23086A   26195.23152285 -.00000241  00000+0  00000+0 0  9997
2 57045   0.0345  12.3074 0002657 332.6277 176.5079  1.00272319 10036
H2SAT (HEINRICH HERTZ)  
1 57213U 23093A   26195.55919376 -.00000006  00000+0  00000+0 0  9998
2 57213   0.0223  98.3589 0000387  50.7004 345.3551  1.00270080 11199
SYRACUSE 4B             
1 57214U 23093B   26194.55973402  .00000000  00000+0  00000+0 0  9991
2 57214   0.0280  56.3015 0000448 204.3313 225.8578  1.00269537  7235
